<?xml version="1.0" encoding="utf-8" ?>
<kml xmlns="http://www.opengis.net/kml/2.2"  xmlns:gx="http://www.google.com/kml/ext/2.2">
<Document>
<Folder><name>Aloha Threat Zones</name>
 <Placemark>
  <name>Yellow Wind Direction Confidence Lines 30 ppm = AEGL-1 (60 min)</name>
  <ExtendedData><Data name="MarplotID"><value>AAAAAAAAAAAAAA02</value></Data></ExtendedData>
  <description><![CDATA[<b>Time:</b> March 18, 2025  1659 hours ST<br><b>Chemical Name:</b> AMMONIA<br><b>Wind:</b> 5 miles/hour from NE at 3 meters<br><small><br></small><b>THREAT ZONE:</b><br><span style="background-color: rgb(255, 0, 0);">&nbsp;&nbsp;&nbsp;&nbsp;</span>&nbsp;Red   : 180 meters --- (1100 ppm = AEGL-3 [60 min])<br><span style="background-color: rgb(255, 153, 0);">&nbsp;&nbsp;&nbsp;&nbsp;</span>&nbsp;Orange: 439 meters --- (160 ppm = AEGL-2 [60 min])<br><span style="background-color: rgb(255, 255, 0);">&nbsp;&nbsp;&nbsp;&nbsp;</span>&nbsp;Yellow: 856 meters --- (30 ppm = AEGL-1 [60 min])<br><br><br>Model: ALOHA Gaussian<br>]]></description>
  <drawOrder>1</drawOrder><Polygon><gx:drawOrder>1</gx:drawOrder><outerBoundaryIs><LinearRing><coordinates>88.399791,22.600439 88.399649,22.600396 88.399537,22.600356 88.399439,22.600336 88.399357,22.600317 88.399283,22.600297 88.399211,22.600269 88.399125,22.600245 88.399035,22.600217 88.398924,22.600178 88.398786,22.600138 88.398699,22.600106 88.398613,22.600074 88.398520,22.600043 88.398425,22.600003 88.398326,22.599967 88.398236,22.599932 88.398132,22.599892 88.398034,22.599856 88.397927,22.599813 88.397827,22.599777 88.397712,22.599733 88.397600,22.599686 88.397496,22.599647 88.397398,22.599602 88.397299,22.599566 88.397214,22.599527 88.397123,22.599492 88.397033,22.599447 88.396951,22.599412 88.396874,22.599380 88.396753,22.599333 88.396633,22.599277 88.396526,22.599226 88.396419,22.599182 88.396320,22.599139 88.396234,22.599099 88.396152,22.599055 88.396075,22.599023 88.396015,22.598992 88.395946,22.598960 88.395838,22.598908 88.395731,22.598857 88.395632,22.598805 88.395534,22.598761 88.395434,22.598710 88.395353,22.598667 88.395268,22.598627 88.395186,22.598583 88.395112,22.598548 88.395035,22.598508 88.394980,22.598480 88.394902,22.598441 88.394829,22.598405 88.394748,22.598361 88.394670,22.598314 88.394571,22.598262 88.394477,22.598207 88.394369,22.598147 88.394262,22.598088 88.394151,22.598024 88.394056,22.597969 88.393961,22.597913 88.393876,22.597865 88.393781,22.597809 88.393695,22.597754 88.393613,22.597703 88.393531,22.597651 88.393445,22.597596 88.393368,22.597540 88.393286,22.597489 88.393132,22.597377 88.392995,22.597274 88.392875,22.597179 88.392771,22.597100 88.392689,22.597017 88.392621,22.596945 88.392582,22.596885 88.392548,22.596831 88.392543,22.596786 88.392552,22.596747 88.392789,22.596374 88.393049,22.596014 88.393332,22.595667 88.393635,22.595337 88.393957,22.595021 88.394298,22.594724 88.394656,22.594445 88.395032,22.594184 88.395422,22.593943 88.395826,22.593725 88.395868,22.593716 88.395916,22.593721 88.395976,22.593752 88.396040,22.593789 88.396118,22.593852 88.396208,22.593927 88.396294,22.594023 88.396397,22.594133 88.396508,22.594260 88.396629,22.594403 88.396685,22.594478 88.396745,22.594549 88.396805,22.594629 88.396861,22.594704 88.396917,22.594780 88.396977,22.594859 88.397037,22.594947 88.397089,22.595026 88.397149,22.595113 88.397209,22.595201 88.397278,22.595303 88.397342,22.595402 88.397407,22.595501 88.397467,22.595589 88.397523,22.595680 88.397575,22.595752 88.397621,22.595826 88.397660,22.595894 88.397703,22.595966 88.397734,22.596017 88.397776,22.596088 88.397814,22.596156 88.397862,22.596232 88.397905,22.596311 88.397952,22.596386 88.398008,22.596478 88.398055,22.596568 88.398111,22.596659 88.398167,22.596758 88.398223,22.596858 88.398257,22.596921 88.398291,22.596977 88.398326,22.597048 88.398373,22.597124 88.398416,22.597203 88.398463,22.597294 88.398511,22.597393 88.398567,22.597492 88.398627,22.597603 88.398678,22.597715 88.398713,22.597786 88.398751,22.597862 88.398799,22.597944 88.398837,22.598028 88.398880,22.598107 88.398919,22.598198 88.398966,22.598289 88.399009,22.598385 88.399060,22.598488 88.399108,22.598595 88.399147,22.598687 88.399194,22.598786 88.399233,22.598877 88.399276,22.598972 88.399314,22.599055 88.399353,22.599147 88.399396,22.599234 88.399430,22.599321 88.399464,22.599400 88.399499,22.599480 88.399542,22.599607 88.399585,22.599710 88.399615,22.599792 88.399641,22.599873 88.399671,22.599939 88.399692,22.600007 88.399714,22.600082 88.399735,22.600173 88.399778,22.600277 88.399825,22.600407 88.399791,22.600439 </coordinates></LinearRing></outerBoundaryIs></Polygon>
  <Style><LineStyle><color>ff00ffff</color><width>2</width></LineStyle>  <PolyStyle><fill>0</fill><color>5500ffff</color></PolyStyle></Style>
 </Placemark>
 <Placemark>
  <name>Orange Wind Direction Confidence Lines 160 ppm = AEGL-2 (60 min)</name>
  <ExtendedData><Data name="MarplotID"><value>AAAAAAAAAAAAAA04</value></Data></ExtendedData>
  <description><![CDATA[<b>Time:</b> March 18, 2025  1659 hours ST<br><b>Chemical Name:</b> AMMONIA<br><b>Wind:</b> 5 miles/hour from NE at 3 meters<br><small><br></small><b>THREAT ZONE:</b><br><span style="background-color: rgb(255, 0, 0);">&nbsp;&nbsp;&nbsp;&nbsp;</span>&nbsp;Red   : 180 meters --- (1100 ppm = AEGL-3 [60 min])<br><span style="background-color: rgb(255, 153, 0);">&nbsp;&nbsp;&nbsp;&nbsp;</span>&nbsp;Orange: 439 meters --- (160 ppm = AEGL-2 [60 min])<br><span style="background-color: rgb(255, 255, 0);">&nbsp;&nbsp;&nbsp;&nbsp;</span>&nbsp;Yellow: 856 meters --- (30 ppm = AEGL-1 [60 min])<br><br><br>Model: ALOHA Gaussian<br>]]></description>
  <drawOrder>2</drawOrder><Polygon><gx:drawOrder>2</gx:drawOrder><outerBoundaryIs><LinearRing><coordinates>88.399782,22.600432 88.399683,22.600404 88.399598,22.600380 88.399521,22.600356 88.399456,22.600336 88.399400,22.600325 88.399353,22.600305 88.399323,22.600292 88.399292,22.600289 88.399280,22.600285 88.399271,22.600285 88.399237,22.600269 88.399194,22.600253 88.399155,22.600233 88.399108,22.600221 88.399056,22.600198 88.399013,22.600181 88.398958,22.600162 88.398906,22.600138 88.398850,22.600118 88.398790,22.600094 88.398729,22.600071 88.398683,22.600051 88.398627,22.600031 88.398575,22.600007 88.398528,22.599987 88.398481,22.599967 88.398438,22.599944 88.398390,22.599932 88.398347,22.599908 88.398309,22.599896 88.398249,22.599864 88.398188,22.599840 88.398129,22.599817 88.398081,22.599789 88.398029,22.599773 88.397986,22.599749 88.397943,22.599726 88.397905,22.599713 88.397870,22.599698 88.397841,22.599678 88.397784,22.599650 88.397729,22.599622 88.397673,22.599602 88.397617,22.599574 88.397575,22.599551 88.397532,22.599527 88.397484,22.599507 88.397450,22.599492 88.397416,22.599467 88.397380,22.599452 88.397346,22.599436 88.397312,22.599420 88.397273,22.599400 88.397230,22.599376 88.397183,22.599348 88.397140,22.599325 88.397093,22.599297 88.397037,22.599269 88.396985,22.599238 88.396930,22.599210 88.396878,22.599186 88.396835,22.599154 88.396788,22.599134 88.396745,22.599103 88.396706,22.599075 88.396655,22.599051 88.396617,22.599023 88.396569,22.598995 88.396530,22.598967 88.396492,22.598940 88.396410,22.598881 88.396342,22.598833 88.396281,22.598786 88.396229,22.598738 88.396183,22.598702 88.396152,22.598667 88.396126,22.598634 88.396113,22.598607 88.396113,22.598583 88.396122,22.598568 88.396242,22.598375 88.396375,22.598190 88.396519,22.598014 88.396674,22.597844 88.396840,22.597683 88.397014,22.597530 88.397198,22.597387 88.397389,22.597254 88.397589,22.597131 88.397798,22.597021 88.397814,22.597012 88.397841,22.597012 88.397870,22.597024 88.397905,22.597048 88.397943,22.597076 88.397982,22.597120 88.398034,22.597167 88.398086,22.597223 88.398137,22.597286 88.398202,22.597362 88.398231,22.597397 88.398261,22.597433 88.398291,22.597477 88.398322,22.597512 88.398347,22.597560 88.398377,22.597596 88.398411,22.597636 88.398433,22.597679 88.398468,22.597718 88.398493,22.597766 88.398524,22.597818 88.398558,22.597865 88.398588,22.597917 88.398618,22.597961 88.398644,22.598000 88.398674,22.598044 88.398699,22.598083 88.398722,22.598119 88.398738,22.598151 88.398756,22.598182 88.398772,22.598215 88.398799,22.598246 88.398815,22.598278 88.398837,22.598322 88.398863,22.598361 88.398888,22.598401 88.398919,22.598452 88.398940,22.598504 88.398970,22.598555 88.399001,22.598607 88.399022,22.598634 88.399039,22.598667 88.399052,22.598702 88.399078,22.598741 88.399103,22.598781 88.399121,22.598829 88.399151,22.598873 88.399176,22.598928 88.399203,22.598984 88.399237,22.599040 88.399249,22.599075 88.399276,22.599114 88.399288,22.599158 88.399314,22.599198 88.399335,22.599241 88.399357,22.599285 88.399383,22.599333 88.399404,22.599384 88.399426,22.599428 88.399451,22.599484 88.399478,22.599539 88.399499,22.599591 88.399524,22.599638 88.399546,22.599690 88.399563,22.599729 88.399589,22.599777 88.399601,22.599820 88.399623,22.599856 88.399641,22.599896 88.399658,22.599927 88.399658,22.599936 88.399662,22.599947 88.399666,22.599975 88.399680,22.600003 88.399701,22.600046 88.399714,22.600099 88.399735,22.600158 88.399760,22.600229 88.399787,22.600308 88.399817,22.600399 88.399782,22.600432 </coordinates></LinearRing></outerBoundaryIs></Polygon>
  <Style><LineStyle><color>ff0080ff</color><width>2</width></LineStyle>  <PolyStyle><fill>0</fill><color>550080ff</color></PolyStyle></Style>
 </Placemark>
 <Placemark>
  <name>Red Wind Direction Confidence Lines 1100 ppm = AEGL-3 (60 min)</name>
  <ExtendedData><Data name="MarplotID"><value>AAAAAAAAAAAAAA06</value></Data></ExtendedData>
  <description><![CDATA[<b>Time:</b> March 18, 2025  1659 hours ST<br><b>Chemical Name:</b> AMMONIA<br><b>Wind:</b> 5 miles/hour from NE at 3 meters<br><small><br></small><b>THREAT ZONE:</b><br><span style="background-color: rgb(255, 0, 0);">&nbsp;&nbsp;&nbsp;&nbsp;</span>&nbsp;Red   : 180 meters --- (1100 ppm = AEGL-3 [60 min])<br><span style="background-color: rgb(255, 153, 0);">&nbsp;&nbsp;&nbsp;&nbsp;</span>&nbsp;Orange: 439 meters --- (160 ppm = AEGL-2 [60 min])<br><span style="background-color: rgb(255, 255, 0);">&nbsp;&nbsp;&nbsp;&nbsp;</span>&nbsp;Yellow: 856 meters --- (30 ppm = AEGL-1 [60 min])<br><br><br>Model: ALOHA Gaussian<br>]]></description>
  <drawOrder>3</drawOrder><Polygon><gx:drawOrder>3</gx:drawOrder><outerBoundaryIs><LinearRing><coordinates>88.399769,22.600427 88.399739,22.600416 88.399718,22.600412 88.399696,22.600407 88.399680,22.600399 88.399662,22.600399 88.399649,22.600396 88.399637,22.600392 88.399610,22.600384 88.399598,22.600380 88.399567,22.600368 88.399546,22.600364 88.399537,22.600356 88.399524,22.600352 88.399499,22.600344 88.399482,22.600336 88.399464,22.600328 88.399442,22.600325 88.399421,22.600312 88.399400,22.600300 88.399374,22.600292 88.399353,22.600289 88.399331,22.600277 88.399319,22.600265 88.399288,22.600261 88.399276,22.600249 88.399258,22.600241 88.399241,22.600233 88.399224,22.600226 88.399203,22.600221 88.399185,22.600213 88.399164,22.600201 88.399142,22.600190 88.399121,22.600178 88.399099,22.600165 88.399078,22.600162 88.399060,22.600154 88.399047,22.600150 88.399031,22.600142 88.399013,22.600134 88.399005,22.600126 88.398983,22.600114 88.398966,22.600106 88.398945,22.600094 88.398927,22.600086 88.398910,22.600079 88.398893,22.600071 88.398876,22.600063 88.398854,22.600051 88.398837,22.600043 88.398820,22.600035 88.398811,22.600027 88.398799,22.600023 88.398786,22.600019 88.398772,22.600007 88.398756,22.600000 88.398734,22.599987 88.398713,22.599975 88.398691,22.599963 88.398670,22.599952 88.398648,22.599939 88.398627,22.599927 88.398609,22.599919 88.398592,22.599912 88.398575,22.599896 88.398558,22.599888 88.398536,22.599876 88.398524,22.599864 88.398506,22.599856 88.398493,22.599845 88.398481,22.599833 88.398447,22.599809 88.398416,22.599797 88.398390,22.599773 88.398369,22.599761 88.398352,22.599746 88.398339,22.599733 88.398334,22.599713 88.398326,22.599706 88.398326,22.599698 88.398348,22.599656 88.398373,22.599618 88.398401,22.599580 88.398428,22.599542 88.398457,22.599505 88.398488,22.599469 88.398519,22.599434 88.398551,22.599399 88.398584,22.599366 88.398618,22.599333 88.398627,22.599325 88.398662,22.599293 88.398698,22.599263 88.398736,22.599233 88.398774,22.599204 88.398813,22.599176 88.398853,22.599149 88.398894,22.599124 88.398935,22.599099 88.398977,22.599076 88.399022,22.599055 88.399031,22.599055 88.399039,22.599063 88.399060,22.599067 88.399074,22.599079 88.399090,22.599094 88.399103,22.599114 88.399129,22.599139 88.399142,22.599167 88.399168,22.599198 88.399181,22.599210 88.399194,22.599221 88.399203,22.599238 88.399215,22.599249 88.399228,22.599269 88.399237,22.599285 88.399254,22.599301 88.399262,22.599317 88.399271,22.599333 88.399283,22.599353 88.399297,22.599373 88.399310,22.599393 88.399323,22.599412 88.399335,22.599432 88.399349,22.599452 88.399357,22.599467 88.399370,22.599480 88.399374,22.599492 88.399378,22.599503 88.399387,22.599511 88.399396,22.599527 88.399404,22.599543 88.399417,22.599563 88.399426,22.599579 88.399435,22.599594 88.399442,22.599610 88.399451,22.599627 88.399464,22.599647 88.399473,22.599662 88.399485,22.599682 88.399494,22.599690 88.399503,22.599706 88.399512,22.599721 88.399516,22.599733 88.399524,22.599749 88.399528,22.599769 88.399542,22.599789 88.399555,22.599809 88.399567,22.599828 88.399580,22.599848 88.399589,22.599864 88.399594,22.599884 88.399601,22.599900 88.399610,22.599916 88.399619,22.599932 88.399632,22.599944 88.399637,22.599972 88.399649,22.599983 88.399662,22.600003 88.399666,22.600023 88.399675,22.600046 88.399687,22.600066 88.399701,22.600086 88.399705,22.600106 88.399714,22.600122 88.399722,22.600138 88.399730,22.600162 88.399735,22.600173 88.399744,22.600181 88.399748,22.600201 88.399760,22.600229 88.399765,22.600241 88.399774,22.600265 88.399778,22.600277 88.399782,22.600289 88.399782,22.600305 88.399791,22.600320 88.399796,22.600340 88.399800,22.600360 88.399812,22.600388 88.399769,22.600427 </coordinates></LinearRing></outerBoundaryIs></Polygon>
  <Style><LineStyle><color>ff0000ff</color><width>2</width></LineStyle>  <PolyStyle><fill>0</fill><color>550000ff</color></PolyStyle></Style>
 </Placemark>
 <Placemark>
  <name>Yellow Threat Zone 30 ppm = AEGL-1 (60 min)</name>
  <ExtendedData><Data name="MarplotID"><value>AAAAAAAAAAAAAA01</value></Data></ExtendedData>
  <description><![CDATA[<b>Time:</b> March 18, 2025  1659 hours ST<br><b>Chemical Name:</b> AMMONIA<br><b>Wind:</b> 5 miles/hour from NE at 3 meters<br><small><br></small><b>THREAT ZONE:</b><br><span style="background-color: rgb(255, 0, 0);">&nbsp;&nbsp;&nbsp;&nbsp;</span>&nbsp;Red   : 180 meters --- (1100 ppm = AEGL-3 [60 min])<br><span style="background-color: rgb(255, 153, 0);">&nbsp;&nbsp;&nbsp;&nbsp;</span>&nbsp;Orange: 439 meters --- (160 ppm = AEGL-2 [60 min])<br><span style="background-color: rgb(255, 255, 0);">&nbsp;&nbsp;&nbsp;&nbsp;</span>&nbsp;Yellow: 856 meters --- (30 ppm = AEGL-1 [60 min])<br><br><br>Model: ALOHA Gaussian<br>]]></description>
  <drawOrder>4</drawOrder><Polygon><gx:drawOrder>4</gx:drawOrder><outerBoundaryIs><LinearRing><coordinates>88.399803,22.600419 88.399680,22.600344 88.399585,22.600280 88.399499,22.600233 88.399426,22.600190 88.399362,22.600154 88.399297,22.600110 88.399224,22.600066 88.399142,22.600015 88.399047,22.599952 88.398931,22.599876 88.398854,22.599820 88.398781,22.599769 88.398704,22.599713 88.398622,22.599654 88.398541,22.599594 88.398459,22.599535 88.398373,22.599472 88.398291,22.599412 88.398202,22.599345 88.398116,22.599281 88.398021,22.599210 88.397927,22.599139 88.397841,22.599075 88.397759,22.599007 88.397673,22.598944 88.397600,22.598885 88.397527,22.598825 88.397454,22.598766 88.397385,22.598710 88.397321,22.598659 88.397218,22.598579 88.397119,22.598496 88.397028,22.598421 88.396942,22.598349 88.396861,22.598282 88.396788,22.598222 88.396724,22.598162 88.396660,22.598111 88.396608,22.598063 88.396556,22.598016 88.396465,22.597941 88.396380,22.597862 88.396299,22.597786 88.396217,22.597718 88.396140,22.597647 88.396070,22.597583 88.396002,22.597520 88.395938,22.597461 88.395877,22.597405 88.395817,22.597350 88.395770,22.597306 88.395709,22.597250 88.395650,22.597195 88.395586,22.597136 88.395520,22.597068 88.395443,22.596997 88.395366,22.596918 88.395284,22.596834 88.395198,22.596747 88.395109,22.596656 88.395035,22.596580 88.394962,22.596505 88.394893,22.596433 88.394821,22.596359 88.394756,22.596283 88.394687,22.596212 88.394627,22.596140 88.394562,22.596065 88.394503,22.595993 88.394442,22.595922 88.394326,22.595775 88.394223,22.595640 88.394137,22.595521 88.394064,22.595414 88.394008,22.595315 88.393965,22.595228 88.393944,22.595161 88.393931,22.595101 88.393935,22.595057 88.393957,22.595021 88.393996,22.595002 88.394042,22.594998 88.394108,22.595010 88.394180,22.595029 88.394275,22.595069 88.394382,22.595120 88.394498,22.595188 88.394627,22.595267 88.394773,22.595363 88.394932,22.595470 88.395009,22.595526 88.395087,22.595581 88.395168,22.595640 88.395246,22.595696 88.395323,22.595760 88.395405,22.595819 88.395486,22.595886 88.395564,22.595950 88.395645,22.596017 88.395727,22.596085 88.395826,22.596168 88.395920,22.596247 88.396011,22.596323 88.396097,22.596394 88.396174,22.596465 88.396247,22.596525 88.396311,22.596585 88.396371,22.596640 88.396431,22.596695 88.396479,22.596739 88.396539,22.596795 88.396599,22.596850 88.396663,22.596910 88.396732,22.596973 88.396801,22.597037 88.396878,22.597108 88.396951,22.597184 88.397033,22.597258 88.397119,22.597338 88.397200,22.597421 88.397252,22.597469 88.397303,22.597517 88.397359,22.597576 88.397423,22.597636 88.397489,22.597703 88.397561,22.597778 88.397639,22.597857 88.397720,22.597941 88.397811,22.598032 88.397896,22.598127 88.397952,22.598187 88.398012,22.598250 88.398077,22.598317 88.398141,22.598385 88.398206,22.598452 88.398274,22.598532 88.398347,22.598607 88.398416,22.598687 88.398493,22.598774 88.398570,22.598861 88.398640,22.598940 88.398713,22.599023 88.398777,22.599099 88.398846,22.599178 88.398910,22.599254 88.398974,22.599329 88.399039,22.599404 88.399099,22.599475 88.399155,22.599543 88.399215,22.599614 88.399297,22.599721 88.399365,22.599809 88.399421,22.599884 88.399469,22.599952 88.399516,22.600011 88.399555,22.600071 88.399601,22.600138 88.399653,22.600217 88.399722,22.600305 88.399803,22.600419 </coordinates></LinearRing></outerBoundaryIs></Polygon>
  <Style><LineStyle><color>ff00ffff</color><width>3</width></LineStyle>  <PolyStyle><fill>1</fill><color>5500ffff</color></PolyStyle></Style>
 </Placemark>
 <Placemark>
  <name>Orange Threat Zone 160 ppm = AEGL-2 (60 min)</name>
  <ExtendedData><Data name="MarplotID"><value>AAAAAAAAAAAAAA03</value></Data></ExtendedData>
  <description><![CDATA[<b>Time:</b> March 18, 2025  1659 hours ST<br><b>Chemical Name:</b> AMMONIA<br><b>Wind:</b> 5 miles/hour from NE at 3 meters<br><small><br></small><b>THREAT ZONE:</b><br><span style="background-color: rgb(255, 0, 0);">&nbsp;&nbsp;&nbsp;&nbsp;</span>&nbsp;Red   : 180 meters --- (1100 ppm = AEGL-3 [60 min])<br><span style="background-color: rgb(255, 153, 0);">&nbsp;&nbsp;&nbsp;&nbsp;</span>&nbsp;Orange: 439 meters --- (160 ppm = AEGL-2 [60 min])<br><span style="background-color: rgb(255, 255, 0);">&nbsp;&nbsp;&nbsp;&nbsp;</span>&nbsp;Yellow: 856 meters --- (30 ppm = AEGL-1 [60 min])<br><br><br>Model: ALOHA Gaussian<br>]]></description>
  <drawOrder>5</drawOrder><Polygon><gx:drawOrder>5</gx:drawOrder><outerBoundaryIs><LinearRing><coordinates>88.399796,22.600412 88.399714,22.600360 88.399637,22.600312 88.399567,22.600272 88.399512,22.600237 88.399464,22.600209 88.399426,22.600181 88.399396,22.600162 88.399374,22.600150 88.399357,22.600142 88.399353,22.600138 88.399323,22.600118 88.399283,22.600090 88.399254,22.600063 88.399215,22.600035 88.399172,22.600003 88.399133,22.599975 88.399086,22.599939 88.399044,22.599908 88.398996,22.599873 88.398945,22.599833 88.398897,22.599797 88.398854,22.599765 88.398807,22.599729 88.398768,22.599693 88.398729,22.599666 88.398687,22.599634 88.398652,22.599602 88.398613,22.599574 88.398579,22.599543 88.398545,22.599520 88.398497,22.599475 88.398447,22.599436 88.398395,22.599396 88.398356,22.599360 88.398313,22.599329 88.398279,22.599297 88.398245,22.599266 88.398210,22.599241 88.398184,22.599218 88.398159,22.599194 88.398111,22.599150 88.398068,22.599111 88.398021,22.599075 88.397978,22.599035 88.397939,22.599000 88.397905,22.598967 88.397870,22.598936 88.397841,22.598908 88.397811,22.598881 88.397784,22.598857 88.397759,22.598833 88.397729,22.598805 88.397698,22.598777 88.397664,22.598746 88.397625,22.598710 88.397591,22.598670 88.397553,22.598634 88.397510,22.598595 88.397471,22.598551 88.397423,22.598508 88.397385,22.598472 88.397351,22.598433 88.397312,22.598397 88.397278,22.598357 88.397248,22.598322 88.397209,22.598286 88.397178,22.598250 88.397144,22.598210 88.397114,22.598175 88.397085,22.598139 88.397024,22.598060 88.396973,22.597996 88.396930,22.597933 88.396896,22.597877 88.396861,22.597829 88.396840,22.597786 88.396826,22.597750 88.396822,22.597723 88.396831,22.597699 88.396840,22.597683 88.396857,22.597675 88.396883,22.597667 88.396912,22.597671 88.396951,22.597683 88.396998,22.597703 88.397050,22.597735 88.397110,22.597766 88.397178,22.597806 88.397248,22.597854 88.397334,22.597909 88.397373,22.597936 88.397411,22.597964 88.397454,22.597996 88.397493,22.598024 88.397532,22.598060 88.397570,22.598088 88.397613,22.598119 88.397652,22.598155 88.397694,22.598187 88.397734,22.598222 88.397780,22.598266 88.397827,22.598302 88.397870,22.598342 88.397909,22.598377 88.397952,22.598408 88.397991,22.598444 88.398025,22.598476 88.398055,22.598504 88.398086,22.598532 88.398111,22.598555 88.398137,22.598579 88.398167,22.598607 88.398197,22.598634 88.398231,22.598667 88.398266,22.598698 88.398304,22.598734 88.398347,22.598774 88.398386,22.598817 88.398429,22.598857 88.398476,22.598901 88.398502,22.598924 88.398528,22.598948 88.398554,22.598980 88.398588,22.599012 88.398622,22.599043 88.398656,22.599083 88.398695,22.599119 88.398738,22.599167 88.398781,22.599213 88.398829,22.599257 88.398854,22.599289 88.398888,22.599321 88.398919,22.599357 88.398953,22.599388 88.398988,22.599428 88.399017,22.599464 88.399056,22.599500 88.399095,22.599543 88.399129,22.599583 88.399168,22.599627 88.399211,22.599674 88.399249,22.599718 88.399283,22.599757 88.399323,22.599800 88.399353,22.599837 88.399387,22.599876 88.399417,22.599912 88.399447,22.599939 88.399478,22.599975 88.399499,22.600003 88.399503,22.600007 88.399512,22.600023 88.399524,22.600043 88.399546,22.600071 88.399576,22.600106 88.399606,22.600150 88.399644,22.600201 88.399687,22.600265 88.399739,22.600336 88.399796,22.600412 </coordinates></LinearRing></outerBoundaryIs></Polygon>
  <Style><LineStyle><color>ff0080ff</color><width>3</width></LineStyle>  <PolyStyle><fill>1</fill><color>550080ff</color></PolyStyle></Style>
 </Placemark>
 <Placemark>
  <name>Red Threat Zone 1100 ppm = AEGL-3 (60 min)</name>
  <ExtendedData><Data name="MarplotID"><value>AAAAAAAAAAAAAA05</value></Data></ExtendedData>
  <description><![CDATA[<b>Time:</b> March 18, 2025  1659 hours ST<br><b>Chemical Name:</b> AMMONIA<br><b>Wind:</b> 5 miles/hour from NE at 3 meters<br><small><br></small><b>THREAT ZONE:</b><br><span style="background-color: rgb(255, 0, 0);">&nbsp;&nbsp;&nbsp;&nbsp;</span>&nbsp;Red   : 180 meters --- (1100 ppm = AEGL-3 [60 min])<br><span style="background-color: rgb(255, 153, 0);">&nbsp;&nbsp;&nbsp;&nbsp;</span>&nbsp;Orange: 439 meters --- (160 ppm = AEGL-2 [60 min])<br><span style="background-color: rgb(255, 255, 0);">&nbsp;&nbsp;&nbsp;&nbsp;</span>&nbsp;Yellow: 856 meters --- (30 ppm = AEGL-1 [60 min])<br><br><br>Model: ALOHA Gaussian<br>]]></description>
  <drawOrder>6</drawOrder><Polygon><gx:drawOrder>6</gx:drawOrder><outerBoundaryIs><LinearRing><coordinates>88.399787,22.600404 88.399760,22.600388 88.399739,22.600376 88.399722,22.600368 88.399709,22.600356 88.399696,22.600352 88.399680,22.600344 88.399671,22.600336 88.399649,22.600325 88.399637,22.600312 88.399610,22.600297 88.399594,22.600289 88.399585,22.600280 88.399572,22.600269 88.399551,22.600257 88.399537,22.600245 88.399524,22.600233 88.399503,22.600221 88.399485,22.600206 88.399469,22.600190 88.399447,22.600178 88.399430,22.600162 88.399413,22.600145 88.399400,22.600134 88.399378,22.600122 88.399365,22.600110 88.399349,22.600094 88.399335,22.600082 88.399323,22.600071 88.399305,22.600063 88.399292,22.600051 88.399276,22.600035 88.399254,22.600015 88.399237,22.600000 88.399219,22.599983 88.399203,22.599975 88.399185,22.599959 88.399176,22.599952 88.399164,22.599939 88.399151,22.599927 88.399142,22.599919 88.399125,22.599904 88.399112,22.599892 88.399095,22.599876 88.399082,22.599864 88.399065,22.599848 88.399052,22.599837 88.399039,22.599825 88.399022,22.599809 88.399009,22.599797 88.398996,22.599785 88.398988,22.599777 88.398979,22.599769 88.398966,22.599757 88.398953,22.599746 88.398940,22.599733 88.398924,22.599718 88.398906,22.599701 88.398893,22.599682 88.398876,22.599666 88.398858,22.599650 88.398842,22.599634 88.398824,22.599619 88.398811,22.599607 88.398799,22.599586 88.398786,22.599574 88.398768,22.599559 88.398760,22.599543 88.398747,22.599531 88.398734,22.599520 88.398726,22.599503 88.398699,22.599472 88.398678,22.599452 88.398656,22.599424 88.398644,22.599404 88.398631,22.599384 88.398622,22.599368 88.398622,22.599353 88.398618,22.599340 88.398618,22.599333 88.398622,22.599329 88.398627,22.599325 88.398635,22.599325 88.398648,22.599329 88.398665,22.599329 88.398683,22.599337 88.398704,22.599348 88.398726,22.599360 88.398756,22.599380 88.398777,22.599400 88.398811,22.599424 88.398829,22.599432 88.398842,22.599444 88.398854,22.599456 88.398872,22.599464 88.398888,22.599480 88.398901,22.599492 88.398924,22.599503 88.398936,22.599515 88.398953,22.599531 88.398970,22.599547 88.398988,22.599563 88.399005,22.599579 88.399026,22.599591 88.399044,22.599607 88.399060,22.599622 88.399074,22.599634 88.399086,22.599647 88.399099,22.599658 88.399108,22.599666 88.399117,22.599674 88.399129,22.599686 88.399142,22.599698 88.399160,22.599713 88.399172,22.599726 88.399185,22.599737 88.399203,22.599753 88.399215,22.599765 88.399233,22.599781 88.399245,22.599792 88.399262,22.599809 88.399271,22.599817 88.399283,22.599828 88.399297,22.599840 88.399305,22.599848 88.399323,22.599864 88.399331,22.599880 88.399349,22.599896 88.399365,22.599912 88.399387,22.599932 88.399404,22.599947 88.399417,22.599959 88.399426,22.599975 88.399439,22.599987 88.399451,22.600000 88.399469,22.600015 88.399482,22.600027 88.399494,22.600046 88.399507,22.600059 88.399524,22.600074 88.399542,22.600090 88.399555,22.600110 88.399572,22.600126 88.399589,22.600142 88.399601,22.600162 88.399615,22.600173 88.399628,22.600186 88.399641,22.600206 88.399653,22.600217 88.399662,22.600226 88.399671,22.600241 88.399687,22.600265 88.399701,22.600277 88.399714,22.600297 88.399722,22.600305 88.399730,22.600320 88.399735,22.600332 88.399748,22.600344 88.399757,22.600360 88.399769,22.600380 88.399787,22.600404 </coordinates></LinearRing></outerBoundaryIs></Polygon>
  <Style><LineStyle><color>ff0000ff</color><width>3</width></LineStyle>  <PolyStyle><fill>1</fill><color>550000ff</color></PolyStyle></Style>
 </Placemark>
</Folder>
<Folder><name>Aloha Points</name>
 <Placemark>
  <name>ALOHA Source Point</name>
  <ExtendedData><Data name="MarplotID"><value>AAAAAA0000000000</value></Data></ExtendedData>
  <description><![CDATA[<b>Time:</b> March 18, 2025  1659 hours ST<br><b>Chemical Name:</b> AMMONIA<br><b>Wind:</b> 5 miles/hour from NE at 3 meters<br><small><br></small><b>THREAT ZONE:</b><br><span style="background-color: rgb(255, 0, 0);">&nbsp;&nbsp;&nbsp;&nbsp;</span>&nbsp;Red   : 180 meters --- (1100 ppm = AEGL-3 [60 min])<br><span style="background-color: rgb(255, 153, 0);">&nbsp;&nbsp;&nbsp;&nbsp;</span>&nbsp;Orange: 439 meters --- (160 ppm = AEGL-2 [60 min])<br><span style="background-color: rgb(255, 255, 0);">&nbsp;&nbsp;&nbsp;&nbsp;</span>&nbsp;Yellow: 856 meters --- (30 ppm = AEGL-1 [60 min])<br><br><br>Model: ALOHA Gaussian<br>]]></description>
  <Point><coordinates>88.399864,22.600475</coordinates></Point>
 </Placemark>
</Folder>
</Document></kml>
