<?xml version="1.0" encoding="utf-8" ?>
<kml xmlns="http://www.opengis.net/kml/2.2"  xmlns:gx="http://www.google.com/kml/ext/2.2">
<Document>
<Folder><name>Aloha Threat Zones</name>
 <Placemark>
  <name>Yellow Wind Direction Confidence Lines 0.5 ppm = AEGL-1 (60 min)</name>
  <ExtendedData><Data name="MarplotID"><value>AAAAAAAAAAAAAA02</value></Data></ExtendedData>
  <description><![CDATA[<b>Time:</b> December 19, 2025  1213 hours ST<br><b>Chemical Name:</b> CHLORINE<br><b>Wind:</b> 1.38 meters/second from NW at 3 meters<br><small><br></small><b>THREAT ZONE:</b><br><span style="background-color: rgb(255, 0, 0);">&nbsp;&nbsp;&nbsp;&nbsp;</span>&nbsp;Red   : 1.1 kilometers --- (20 ppm = AEGL-3 [60 min])<br><span style="background-color: rgb(255, 153, 0);">&nbsp;&nbsp;&nbsp;&nbsp;</span>&nbsp;Orange: 2.6 kilometers --- (2 ppm = AEGL-2 [60 min])<br><span style="background-color: rgb(255, 255, 0);">&nbsp;&nbsp;&nbsp;&nbsp;</span>&nbsp;Yellow: 4.2 kilometers --- (0.5 ppm = AEGL-1 [60 min])<br><br><br>Model: ALOHA Heavy Gas <br>]]></description>
  <drawOrder>1</drawOrder><Polygon><gx:drawOrder>1</gx:drawOrder><outerBoundaryIs><LinearRing><coordinates>82.679208,22.416369 82.678995,22.416447 82.678654,22.416565 82.678357,22.416683 82.677996,22.416782 82.677656,22.416900 82.677230,22.417018 82.676827,22.417116 82.676380,22.417253 82.675891,22.417352 82.675360,22.417450 82.674786,22.417549 82.674169,22.417647 82.673510,22.417784 82.672809,22.417961 82.672064,22.418138 82.671193,22.418276 82.670300,22.418433 82.669301,22.418570 82.668196,22.418688 82.667026,22.418865 82.665708,22.418983 82.664305,22.419101 82.662732,22.419218 82.661010,22.419317 82.659118,22.419376 82.657014,22.419396 82.654675,22.419317 82.652103,22.419180 82.649234,22.418846 82.646023,22.418197 82.642409,22.416703 82.641219,22.415131 82.641227,22.411748 82.641558,22.408384 82.642210,22.405061 82.643178,22.401805 82.644455,22.398641 82.646031,22.395595 82.647892,22.392689 82.650026,22.389947 82.652413,22.387393 82.655038,22.385043 82.657876,22.382918 82.660908,22.381034 82.664109,22.379407 82.667453,22.378048 82.670914,22.376969 82.674465,22.376178 82.678079,22.375682 82.681726,22.375484 82.685377,22.375586 82.689003,22.375986 82.692577,22.376683 82.696072,22.377671 82.699456,22.378941 82.702705,22.380484 82.705794,22.382286 82.708697,22.384336 82.711393,22.386615 82.713858,22.389107 82.716075,22.391791 82.718026,22.394646 82.719694,22.397651 82.721068,22.400779 82.722136,22.404009 82.722890,22.407313 82.723324,22.410666 82.723434,22.414041 82.723220,22.417413 82.722683,22.420753 82.721828,22.424036 82.720661,22.427236 82.719191,22.430327 82.717430,22.433287 82.715392,22.436089 82.713094,22.438713 82.710552,22.441139 82.707788,22.443347 82.704823,22.445319 82.701680,22.447040 82.698384,22.448497 82.694962,22.449677 82.691440,22.450572 82.687845,22.451175 82.684207,22.451480 82.680547,22.451488 82.678846,22.450388 82.677230,22.447047 82.676529,22.444079 82.676167,22.441426 82.676018,22.439048 82.675934,22.436886 82.675955,22.434941 82.676018,22.433192 82.676125,22.431600 82.676252,22.430146 82.676380,22.428849 82.676507,22.427630 82.676699,22.426549 82.676827,22.425528 82.676975,22.424604 82.677145,22.423778 82.677294,22.422973 82.677485,22.422285 82.677677,22.421636 82.677825,22.421027 82.677931,22.420457 82.678039,22.419926 82.678145,22.419435 82.678251,22.418983 82.678400,22.418570 82.678506,22.418197 82.678634,22.417804 82.678761,22.417489 82.678868,22.417155 82.678995,22.416881 82.679123,22.416565 82.679208,22.416369 </coordinates></LinearRing></outerBoundaryIs></Polygon>
  <Style><LineStyle><color>ff00ffff</color><width>2</width></LineStyle>  <PolyStyle><fill>0</fill><color>5500ffff</color></PolyStyle></Style>
 </Placemark>
 <Placemark>
  <name>Yellow Threat Zone 0.5 ppm = AEGL-1 (60 min)</name>
  <ExtendedData><Data name="MarplotID"><value>AAAAAAAAAAAAAA01</value></Data></ExtendedData>
  <description><![CDATA[<b>Time:</b> December 19, 2025  1213 hours ST<br><b>Chemical Name:</b> CHLORINE<br><b>Wind:</b> 1.38 meters/second from NW at 3 meters<br><small><br></small><b>THREAT ZONE:</b><br><span style="background-color: rgb(255, 0, 0);">&nbsp;&nbsp;&nbsp;&nbsp;</span>&nbsp;Red   : 1.1 kilometers --- (20 ppm = AEGL-3 [60 min])<br><span style="background-color: rgb(255, 153, 0);">&nbsp;&nbsp;&nbsp;&nbsp;</span>&nbsp;Orange: 2.6 kilometers --- (2 ppm = AEGL-2 [60 min])<br><span style="background-color: rgb(255, 255, 0);">&nbsp;&nbsp;&nbsp;&nbsp;</span>&nbsp;Yellow: 4.2 kilometers --- (0.5 ppm = AEGL-1 [60 min])<br><br><br>Model: ALOHA Heavy Gas <br>]]></description>
  <drawOrder>2</drawOrder><Polygon><gx:drawOrder>2</gx:drawOrder><outerBoundaryIs><LinearRing><coordinates>82.682374,22.413559 82.682370,22.413564 82.682363,22.413568 82.682356,22.413572 82.682349,22.413576 82.682342,22.413578 82.682334,22.413580 82.682327,22.413582 82.682319,22.413583 82.682311,22.413584 82.682303,22.413583 82.682296,22.413582 82.682288,22.413580 82.682280,22.413578 82.682273,22.413576 82.682266,22.413572 82.682259,22.413568 82.682253,22.413564 82.682248,22.413559 82.682242,22.413554 82.682237,22.413548 82.682233,22.413541 82.682229,22.413535 82.682226,22.413529 82.682224,22.413522 82.682222,22.413514 82.682221,22.413507 82.682221,22.413500 82.682221,22.413493 82.682222,22.413486 82.682224,22.413478 82.682226,22.413471 82.682229,22.413465 82.682233,22.413459 82.682237,22.413452 82.682242,22.413446 82.682248,22.413441 82.682205,22.413244 82.682056,22.412950 82.681971,22.412714 82.681907,22.412498 82.681865,22.412301 82.681844,22.412085 82.681844,22.411889 82.681844,22.411692 82.681886,22.411495 82.681886,22.411299 82.681928,22.411103 82.681993,22.410887 82.682034,22.410651 82.682120,22.410453 82.682184,22.410237 82.682268,22.410002 82.682374,22.409747 82.682482,22.409491 82.682609,22.409255 82.682757,22.408960 82.682885,22.408685 82.683077,22.408390 82.683246,22.408076 82.683480,22.407742 82.683714,22.407408 82.683948,22.407034 82.684224,22.406661 82.684543,22.406248 82.684884,22.405816 82.685266,22.405345 82.685670,22.404853 82.686053,22.404263 82.686477,22.403674 82.687009,22.403025 82.687562,22.402357 82.688178,22.401630 82.688901,22.400844 82.689645,22.399999 82.690517,22.399075 82.691474,22.398113 82.692537,22.397051 82.693748,22.395892 82.695108,22.394673 82.696640,22.393337 82.698404,22.391941 82.700423,22.390428 82.702782,22.388876 82.705610,22.387363 82.709352,22.386183 82.711393,22.386615 82.711860,22.388502 82.710584,22.391961 82.708948,22.394575 82.707268,22.396756 82.705632,22.398623 82.704122,22.400254 82.702676,22.401670 82.701358,22.402927 82.700105,22.404047 82.698956,22.405030 82.697915,22.405914 82.696915,22.406720 82.696001,22.407408 82.695151,22.408076 82.694365,22.408646 82.693642,22.409157 82.692940,22.409648 82.692303,22.410041 82.691665,22.410395 82.691133,22.410769 82.690623,22.411122 82.690156,22.411437 82.689709,22.411731 82.689305,22.411987 82.688901,22.412203 82.688540,22.412419 82.688178,22.412635 82.687838,22.412792 82.687520,22.412970 82.687222,22.413088 82.686903,22.413224 82.686648,22.413342 82.686371,22.413441 82.686095,22.413540 82.685840,22.413618 82.685607,22.413677 82.685393,22.413756 82.685138,22.413794 82.684904,22.413854 82.684692,22.413893 82.684480,22.413893 82.684267,22.413932 82.684054,22.413932 82.683841,22.413932 82.683608,22.413912 82.683395,22.413874 82.683162,22.413814 82.682906,22.413736 82.682588,22.413598 82.682374,22.413559 </coordinates></LinearRing></outerBoundaryIs></Polygon>
  <Style><LineStyle><color>ff00ffff</color><width>3</width></LineStyle>  <PolyStyle><fill>1</fill><color>5500ffff</color></PolyStyle></Style>
 </Placemark>
 <Placemark>
  <name>Orange Threat Zone 2 ppm = AEGL-2 (60 min)</name>
  <ExtendedData><Data name="MarplotID"><value>AAAAAAAAAAAAAA03</value></Data></ExtendedData>
  <description><![CDATA[<b>Time:</b> December 19, 2025  1213 hours ST<br><b>Chemical Name:</b> CHLORINE<br><b>Wind:</b> 1.38 meters/second from NW at 3 meters<br><small><br></small><b>THREAT ZONE:</b><br><span style="background-color: rgb(255, 0, 0);">&nbsp;&nbsp;&nbsp;&nbsp;</span>&nbsp;Red   : 1.1 kilometers --- (20 ppm = AEGL-3 [60 min])<br><span style="background-color: rgb(255, 153, 0);">&nbsp;&nbsp;&nbsp;&nbsp;</span>&nbsp;Orange: 2.6 kilometers --- (2 ppm = AEGL-2 [60 min])<br><span style="background-color: rgb(255, 255, 0);">&nbsp;&nbsp;&nbsp;&nbsp;</span>&nbsp;Yellow: 4.2 kilometers --- (0.5 ppm = AEGL-1 [60 min])<br><br><br>Model: ALOHA Heavy Gas <br>]]></description>
  <drawOrder>3</drawOrder><Polygon><gx:drawOrder>3</gx:drawOrder><outerBoundaryIs><LinearRing><coordinates>82.682374,22.413559 82.682370,22.413564 82.682363,22.413568 82.682356,22.413572 82.682349,22.413576 82.682342,22.413578 82.682334,22.413580 82.682327,22.413582 82.682319,22.413583 82.682311,22.413584 82.682303,22.413583 82.682296,22.413582 82.682288,22.413580 82.682280,22.413578 82.682273,22.413576 82.682266,22.413572 82.682259,22.413568 82.682253,22.413564 82.682248,22.413559 82.682242,22.413554 82.682237,22.413548 82.682233,22.413541 82.682229,22.413535 82.682226,22.413529 82.682224,22.413522 82.682222,22.413514 82.682221,22.413507 82.682221,22.413500 82.682221,22.413493 82.682222,22.413486 82.682224,22.413478 82.682226,22.413471 82.682229,22.413465 82.682233,22.413459 82.682237,22.413452 82.682242,22.413446 82.682248,22.413441 82.682205,22.413244 82.682077,22.412970 82.681993,22.412734 82.681950,22.412537 82.681907,22.412340 82.681907,22.412144 82.681907,22.411947 82.681928,22.411771 82.681971,22.411574 82.681993,22.411397 82.682034,22.411201 82.682099,22.410985 82.682184,22.410788 82.682248,22.410571 82.682333,22.410375 82.682439,22.410159 82.682566,22.409923 82.682694,22.409687 82.682822,22.409451 82.682991,22.409177 82.683140,22.408921 82.683352,22.408646 82.683544,22.408351 82.683800,22.408036 82.684033,22.407702 82.684309,22.407368 82.684607,22.407014 82.684969,22.406642 82.685330,22.406229 82.685755,22.405796 82.686202,22.405345 82.686626,22.404794 82.687116,22.404263 82.687711,22.403674 82.688327,22.403065 82.689029,22.402416 82.689836,22.401708 82.690708,22.400982 82.691729,22.400195 82.692834,22.399370 82.694131,22.398525 82.695640,22.397641 82.697469,22.396854 82.700274,22.396894 82.700317,22.399488 82.699466,22.401178 82.698510,22.402573 82.697596,22.403772 82.696703,22.404794 82.695852,22.405737 82.695066,22.406543 82.694301,22.407290 82.693599,22.407938 82.692940,22.408508 82.692303,22.409059 82.691729,22.409511 82.691133,22.409903 82.690645,22.410317 82.690176,22.410709 82.689730,22.411043 82.689327,22.411377 82.688944,22.411653 82.688583,22.411908 82.688221,22.412124 82.687881,22.412360 82.687562,22.412537 82.687265,22.412734 82.686988,22.412871 82.686691,22.413028 82.686436,22.413146 82.686180,22.413264 82.685925,22.413382 82.685691,22.413480 82.685479,22.413559 82.685245,22.413618 82.685032,22.413696 82.684798,22.413756 82.684586,22.413794 82.684395,22.413814 82.684181,22.413854 82.683991,22.413874 82.683778,22.413874 82.683566,22.413874 82.683352,22.413834 82.683140,22.413794 82.682885,22.413716 82.682588,22.413598 82.682374,22.413559 </coordinates></LinearRing></outerBoundaryIs></Polygon>
  <Style><LineStyle><color>ff0080ff</color><width>3</width></LineStyle>  <PolyStyle><fill>1</fill><color>550080ff</color></PolyStyle></Style>
 </Placemark>
 <Placemark>
  <name>Red Threat Zone 20 ppm = AEGL-3 (60 min)</name>
  <ExtendedData><Data name="MarplotID"><value>AAAAAAAAAAAAAA04</value></Data></ExtendedData>
  <description><![CDATA[<b>Time:</b> December 19, 2025  1213 hours ST<br><b>Chemical Name:</b> CHLORINE<br><b>Wind:</b> 1.38 meters/second from NW at 3 meters<br><small><br></small><b>THREAT ZONE:</b><br><span style="background-color: rgb(255, 0, 0);">&nbsp;&nbsp;&nbsp;&nbsp;</span>&nbsp;Red   : 1.1 kilometers --- (20 ppm = AEGL-3 [60 min])<br><span style="background-color: rgb(255, 153, 0);">&nbsp;&nbsp;&nbsp;&nbsp;</span>&nbsp;Orange: 2.6 kilometers --- (2 ppm = AEGL-2 [60 min])<br><span style="background-color: rgb(255, 255, 0);">&nbsp;&nbsp;&nbsp;&nbsp;</span>&nbsp;Yellow: 4.2 kilometers --- (0.5 ppm = AEGL-1 [60 min])<br><br><br>Model: ALOHA Heavy Gas <br>]]></description>
  <drawOrder>4</drawOrder><Polygon><gx:drawOrder>4</gx:drawOrder><outerBoundaryIs><LinearRing><coordinates>82.682374,22.413559 82.682370,22.413564 82.682363,22.413568 82.682356,22.413572 82.682349,22.413576 82.682342,22.413578 82.682334,22.413580 82.682327,22.413582 82.682319,22.413583 82.682311,22.413584 82.682303,22.413583 82.682296,22.413582 82.682288,22.413580 82.682280,22.413578 82.682273,22.413576 82.682266,22.413572 82.682259,22.413568 82.682253,22.413564 82.682248,22.413559 82.682242,22.413554 82.682237,22.413548 82.682233,22.413541 82.682229,22.413535 82.682226,22.413529 82.682224,22.413522 82.682222,22.413514 82.682221,22.413507 82.682221,22.413500 82.682221,22.413493 82.682222,22.413486 82.682224,22.413478 82.682226,22.413471 82.682229,22.413465 82.682233,22.413459 82.682237,22.413452 82.682242,22.413446 82.682248,22.413441 82.682226,22.413264 82.682099,22.412989 82.682034,22.412773 82.682013,22.412596 82.681993,22.412419 82.682013,22.412242 82.682034,22.412065 82.682077,22.411908 82.682141,22.411731 82.682184,22.411574 82.682248,22.411397 82.682333,22.411201 82.682439,22.411024 82.682545,22.410847 82.682651,22.410671 82.682779,22.410473 82.682928,22.410257 82.683097,22.410061 82.683246,22.409845 82.683459,22.409609 82.683672,22.409412 82.683906,22.409157 82.684161,22.408921 82.684458,22.408646 82.684777,22.408390 82.685118,22.408116 82.685479,22.407820 82.685925,22.407526 82.686393,22.407212 82.686925,22.406877 82.687520,22.406563 82.688178,22.406229 82.688986,22.405993 82.690241,22.406170 82.690431,22.407330 82.690176,22.408076 82.689815,22.408685 82.689475,22.409235 82.689113,22.409727 82.688773,22.410159 82.688455,22.410571 82.688135,22.410906 82.687838,22.411221 82.687562,22.411515 82.687265,22.411790 82.687009,22.412026 82.686733,22.412242 82.686520,22.412439 82.686265,22.412635 82.686031,22.412773 82.685819,22.412930 82.685585,22.413068 82.685372,22.413186 82.685181,22.413284 82.684990,22.413382 82.684798,22.413480 82.684586,22.413559 82.684395,22.413618 82.684224,22.413658 82.684033,22.413716 82.683863,22.413756 82.683672,22.413776 82.683480,22.413794 82.683289,22.413776 82.683097,22.413756 82.682863,22.413696 82.682566,22.413578 82.682374,22.413559 </coordinates></LinearRing></outerBoundaryIs></Polygon>
  <Style><LineStyle><color>ff0000ff</color><width>3</width></LineStyle>  <PolyStyle><fill>1</fill><color>550000ff</color></PolyStyle></Style>
 </Placemark>
</Folder>
<Folder><name>Aloha Points</name>
 <Placemark>
  <name>ALOHA Source Point</name>
  <ExtendedData><Data name="MarplotID"><value>AAAAAA0000000000</value></Data></ExtendedData>
  <description><![CDATA[<b>Time:</b> December 19, 2025  1213 hours ST<br><b>Chemical Name:</b> CHLORINE<br><b>Wind:</b> 1.38 meters/second from NW at 3 meters<br><small><br></small><b>THREAT ZONE:</b><br><span style="background-color: rgb(255, 0, 0);">&nbsp;&nbsp;&nbsp;&nbsp;</span>&nbsp;Red   : 1.1 kilometers --- (20 ppm = AEGL-3 [60 min])<br><span style="background-color: rgb(255, 153, 0);">&nbsp;&nbsp;&nbsp;&nbsp;</span>&nbsp;Orange: 2.6 kilometers --- (2 ppm = AEGL-2 [60 min])<br><span style="background-color: rgb(255, 255, 0);">&nbsp;&nbsp;&nbsp;&nbsp;</span>&nbsp;Yellow: 4.2 kilometers --- (0.5 ppm = AEGL-1 [60 min])<br><br><br>Model: ALOHA Heavy Gas <br>]]></description>
  <Point><coordinates>82.682311,22.413500</coordinates></Point>
 </Placemark>
</Folder>
</Document></kml>
