<?xml version="1.0" encoding="utf-8" ?>
<kml xmlns="http://www.opengis.net/kml/2.2"  xmlns:gx="http://www.google.com/kml/ext/2.2">
<Document>
<Folder><name>Aloha Threat Zones</name>
 <Placemark>
  <name>Yellow Wind Direction Confidence Lines 0.5 ppm = AEGL-1 (60 min)</name>
  <ExtendedData><Data name="MarplotID"><value>AAAAAAAAAAAAAA02</value></Data></ExtendedData>
  <description><![CDATA[<b>Time:</b> September 11, 2026  1320 hours ST<br><b>Chemical Name:</b> CHLORINE<br><b>Wind:</b> 4.17 meters/second from NE at 10 meters<br><small><br></small><b>THREAT ZONE:</b><br><span style="background-color: rgb(255, 0, 0);">&nbsp;&nbsp;&nbsp;&nbsp;</span>&nbsp;Red   : 1.2 miles --- (20 ppm = AEGL-3 [60 min])<br><span style="background-color: rgb(255, 153, 0);">&nbsp;&nbsp;&nbsp;&nbsp;</span>&nbsp;Orange: 2.6 miles --- (2 ppm = AEGL-2 [60 min])<br><span style="background-color: rgb(255, 255, 0);">&nbsp;&nbsp;&nbsp;&nbsp;</span>&nbsp;Yellow: 4.1 miles --- (0.5 ppm = AEGL-1 [60 min])<br><br><br>Model: ALOHA Heavy Gas <br>]]></description>
  <drawOrder>1</drawOrder><Polygon><gx:drawOrder>1</gx:drawOrder><outerBoundaryIs><LinearRing><coordinates>83.120623,21.887958 83.120490,21.888021 83.120290,21.888082 83.120157,21.888082 83.119990,21.888113 83.119824,21.888144 83.119624,21.888144 83.119491,21.888144 83.119292,21.888144 83.119125,21.888113 83.118892,21.888082 83.118759,21.888082 83.118560,21.888021 83.118293,21.888021 83.118094,21.887958 83.117861,21.887928 83.117629,21.887897 83.117363,21.887774 83.117096,21.887774 83.116830,21.887712 83.116497,21.887588 83.116198,21.887496 83.115832,21.887403 83.115466,21.887310 83.115066,21.887187 83.114701,21.887033 83.114236,21.886909 83.113736,21.886817 83.113204,21.886693 83.112671,21.886508 83.112073,21.886323 83.111475,21.886075 83.110776,21.885859 83.110010,21.885582 83.109212,21.885335 83.108381,21.884996 83.107449,21.884625 83.106451,21.884254 83.105320,21.883761 83.104156,21.883297 83.102825,21.882742 83.101395,21.882155 83.099865,21.881476 83.098134,21.880674 83.096272,21.879809 83.094210,21.878822 83.091914,21.877680 83.089485,21.876414 83.086724,21.874901 83.083697,21.873204 83.080370,21.871228 83.076678,21.868913 83.072720,21.866166 83.068428,21.862678 83.065234,21.857554 83.066949,21.855022 83.068807,21.852551 83.070795,21.850169 83.072911,21.847884 83.075148,21.845701 83.077500,21.843625 83.079964,21.841662 83.082531,21.839817 83.085194,21.838093 83.087922,21.836502 83.093444,21.839465 83.097204,21.843448 83.100164,21.847121 83.102659,21.850546 83.104788,21.853633 83.106617,21.856442 83.108248,21.859004 83.109611,21.861258 83.110842,21.863388 83.111907,21.865302 83.112838,21.867030 83.113703,21.868636 83.114435,21.870056 83.115066,21.871382 83.115665,21.872618 83.116165,21.873697 83.116697,21.874748 83.117096,21.875673 83.117496,21.876538 83.117861,21.877310 83.118127,21.878050 83.118426,21.878760 83.118659,21.879409 83.118926,21.879964 83.119125,21.880519 83.119325,21.881013 83.119458,21.881507 83.119558,21.881971 83.119691,21.882402 83.119857,21.882742 83.119990,21.883113 83.120090,21.883452 83.120190,21.883792 83.120290,21.884069 83.120423,21.884378 83.120490,21.884625 83.120490,21.884872 83.120623,21.885119 83.120656,21.885335 83.120689,21.885551 83.120756,21.885736 83.120756,21.885984 83.120822,21.886168 83.120822,21.886292 83.120855,21.886508 83.120888,21.886663 83.120888,21.886847 83.120888,21.886971 83.120888,21.887156 83.120855,21.887310 83.120822,21.887465 83.120822,21.887588 83.120756,21.887774 83.120689,21.887897 83.120623,21.887958 </coordinates></LinearRing></outerBoundaryIs></Polygon>
  <Style><LineStyle><color>ff00ffff</color><width>2</width></LineStyle>  <PolyStyle><fill>0</fill><color>5500ffff</color></PolyStyle></Style>
 </Placemark>
 <Placemark>
  <name>Orange Wind Direction Confidence Lines 2 ppm = AEGL-2 (60 min)</name>
  <ExtendedData><Data name="MarplotID"><value>AAAAAAAAAAAAAA04</value></Data></ExtendedData>
  <description><![CDATA[<b>Time:</b> September 11, 2026  1320 hours ST<br><b>Chemical Name:</b> CHLORINE<br><b>Wind:</b> 4.17 meters/second from NE at 10 meters<br><small><br></small><b>THREAT ZONE:</b><br><span style="background-color: rgb(255, 0, 0);">&nbsp;&nbsp;&nbsp;&nbsp;</span>&nbsp;Red   : 1.2 miles --- (20 ppm = AEGL-3 [60 min])<br><span style="background-color: rgb(255, 153, 0);">&nbsp;&nbsp;&nbsp;&nbsp;</span>&nbsp;Orange: 2.6 miles --- (2 ppm = AEGL-2 [60 min])<br><span style="background-color: rgb(255, 255, 0);">&nbsp;&nbsp;&nbsp;&nbsp;</span>&nbsp;Yellow: 4.1 miles --- (0.5 ppm = AEGL-1 [60 min])<br><br><br>Model: ALOHA Heavy Gas <br>]]></description>
  <drawOrder>2</drawOrder><Polygon><gx:drawOrder>2</gx:drawOrder><outerBoundaryIs><LinearRing><coordinates>83.120623,21.887958 83.120490,21.888021 83.120290,21.888082 83.120157,21.888082 83.119990,21.888113 83.119824,21.888144 83.119658,21.888113 83.119525,21.888113 83.119358,21.888082 83.119159,21.888082 83.118959,21.888021 83.118792,21.888051 83.118593,21.887990 83.118360,21.887958 83.118160,21.887897 83.117927,21.887866 83.117695,21.887774 83.117396,21.887681 83.117163,21.887650 83.116930,21.887558 83.116564,21.887465 83.116264,21.887372 83.115932,21.887249 83.115599,21.887125 83.115200,21.887002 83.114768,21.886847 83.114402,21.886693 83.113869,21.886570 83.113370,21.886415 83.112838,21.886230 83.112272,21.886014 83.111641,21.885798 83.111009,21.885520 83.110243,21.885242 83.109478,21.884903 83.108647,21.884563 83.107748,21.884162 83.106783,21.883699 83.105686,21.883174 83.104555,21.882680 83.103290,21.882001 83.101894,21.881322 83.100430,21.880581 83.098767,21.879655 83.097004,21.878637 83.095074,21.877464 83.092945,21.876106 83.090683,21.874500 83.088255,21.872493 83.085959,21.869623 83.086026,21.868944 83.087089,21.867361 83.088250,21.865817 83.089493,21.864328 83.090815,21.862900 83.092213,21.861536 83.093684,21.860238 83.095223,21.859012 83.096827,21.857858 83.098491,21.856781 83.100197,21.855795 83.100929,21.855733 83.104022,21.857862 83.106184,21.860116 83.107915,21.862215 83.109378,21.864190 83.110643,21.865981 83.111741,21.867617 83.112738,21.869161 83.113537,21.870519 83.114269,21.871814 83.115000,21.872988 83.115532,21.874037 83.116098,21.875055 83.116597,21.875951 83.117030,21.876785 83.117396,21.877556 83.117762,21.878266 83.118060,21.878976 83.118360,21.879563 83.118593,21.880149 83.118826,21.880674 83.119025,21.881167 83.119192,21.881630 83.119325,21.882125 83.119491,21.882464 83.119658,21.882866 83.119791,21.883236 83.119924,21.883545 83.120057,21.883853 83.120157,21.884131 83.120257,21.884471 83.120357,21.884687 83.120390,21.884903 83.120490,21.885180 83.120589,21.885396 83.120623,21.885612 83.120689,21.885798 83.120723,21.886014 83.120789,21.886199 83.120756,21.886354 83.120822,21.886539 83.120822,21.886724 83.120855,21.886879 83.120855,21.887002 83.120888,21.887156 83.120855,21.887310 83.120822,21.887465 83.120822,21.887588 83.120756,21.887774 83.120689,21.887897 83.120623,21.887958 </coordinates></LinearRing></outerBoundaryIs></Polygon>
  <Style><LineStyle><color>ff0080ff</color><width>2</width></LineStyle>  <PolyStyle><fill>0</fill><color>550080ff</color></PolyStyle></Style>
 </Placemark>
 <Placemark>
  <name>Red Wind Direction Confidence Lines 20 ppm = AEGL-3 (60 min)</name>
  <ExtendedData><Data name="MarplotID"><value>AAAAAAAAAAAAAA06</value></Data></ExtendedData>
  <description><![CDATA[<b>Time:</b> September 11, 2026  1320 hours ST<br><b>Chemical Name:</b> CHLORINE<br><b>Wind:</b> 4.17 meters/second from NE at 10 meters<br><small><br></small><b>THREAT ZONE:</b><br><span style="background-color: rgb(255, 0, 0);">&nbsp;&nbsp;&nbsp;&nbsp;</span>&nbsp;Red   : 1.2 miles --- (20 ppm = AEGL-3 [60 min])<br><span style="background-color: rgb(255, 153, 0);">&nbsp;&nbsp;&nbsp;&nbsp;</span>&nbsp;Orange: 2.6 miles --- (2 ppm = AEGL-2 [60 min])<br><span style="background-color: rgb(255, 255, 0);">&nbsp;&nbsp;&nbsp;&nbsp;</span>&nbsp;Yellow: 4.1 miles --- (0.5 ppm = AEGL-1 [60 min])<br><br><br>Model: ALOHA Heavy Gas <br>]]></description>
  <drawOrder>3</drawOrder><Polygon><gx:drawOrder>3</gx:drawOrder><outerBoundaryIs><LinearRing><coordinates>83.120623,21.887958 83.120490,21.888021 83.120323,21.888051 83.120190,21.888051 83.120024,21.888082 83.119857,21.888051 83.119691,21.888082 83.119558,21.888021 83.119391,21.887990 83.119225,21.887958 83.119025,21.887897 83.118892,21.887897 83.118659,21.887866 83.118460,21.887804 83.118260,21.887742 83.118027,21.887650 83.117861,21.887558 83.117562,21.887465 83.117329,21.887372 83.117096,21.887279 83.116764,21.887156 83.116464,21.887063 83.116131,21.886940 83.115799,21.886817 83.115432,21.886600 83.115066,21.886446 83.114668,21.886261 83.114202,21.886075 83.113703,21.885859 83.113204,21.885643 83.112671,21.885396 83.112106,21.885057 83.111475,21.884717 83.110809,21.884347 83.110077,21.883977 83.109312,21.883513 83.108514,21.882958 83.107615,21.882371 83.106684,21.881630 83.105786,21.880735 83.105187,21.879439 83.105658,21.878740 83.106177,21.878049 83.106733,21.877384 83.107323,21.876746 83.107948,21.876136 83.108605,21.875556 83.109293,21.875009 83.110009,21.874493 83.110754,21.874012 83.111508,21.873574 83.112904,21.874130 83.113869,21.874964 83.114668,21.875827 83.115299,21.876661 83.115898,21.877402 83.116398,21.878112 83.116797,21.878791 83.117196,21.879409 83.117562,21.879995 83.117927,21.880519 83.118193,21.881013 83.118426,21.881476 83.118659,21.881939 83.118859,21.882371 83.119059,21.882742 83.119225,21.883081 83.119458,21.883421 83.119591,21.883729 83.119724,21.884038 83.119824,21.884317 83.119957,21.884625 83.120057,21.884841 83.120157,21.885057 83.120257,21.885335 83.120357,21.885489 83.120456,21.885705 83.120523,21.885891 83.120589,21.886075 83.120623,21.886292 83.120623,21.886415 83.120689,21.886600 83.120723,21.886754 83.120756,21.886909 83.120822,21.887033 83.120789,21.887187 83.120822,21.887342 83.120789,21.887496 83.120789,21.887619 83.120756,21.887774 83.120689,21.887897 83.120623,21.887958 </coordinates></LinearRing></outerBoundaryIs></Polygon>
  <Style><LineStyle><color>ff0000ff</color><width>2</width></LineStyle>  <PolyStyle><fill>0</fill><color>550000ff</color></PolyStyle></Style>
 </Placemark>
 <Placemark>
  <name>Yellow Threat Zone 0.5 ppm = AEGL-1 (60 min)</name>
  <ExtendedData><Data name="MarplotID"><value>AAAAAAAAAAAAAA01</value></Data></ExtendedData>
  <description><![CDATA[<b>Time:</b> September 11, 2026  1320 hours ST<br><b>Chemical Name:</b> CHLORINE<br><b>Wind:</b> 4.17 meters/second from NE at 10 meters<br><small><br></small><b>THREAT ZONE:</b><br><span style="background-color: rgb(255, 0, 0);">&nbsp;&nbsp;&nbsp;&nbsp;</span>&nbsp;Red   : 1.2 miles --- (20 ppm = AEGL-3 [60 min])<br><span style="background-color: rgb(255, 153, 0);">&nbsp;&nbsp;&nbsp;&nbsp;</span>&nbsp;Orange: 2.6 miles --- (2 ppm = AEGL-2 [60 min])<br><span style="background-color: rgb(255, 255, 0);">&nbsp;&nbsp;&nbsp;&nbsp;</span>&nbsp;Yellow: 4.1 miles --- (0.5 ppm = AEGL-1 [60 min])<br><br><br>Model: ALOHA Heavy Gas <br>]]></description>
  <drawOrder>4</drawOrder><Polygon><gx:drawOrder>4</gx:drawOrder><outerBoundaryIs><LinearRing><coordinates>83.120689,21.887897 83.120691,21.887900 83.120694,21.887903 83.120696,21.887906 83.120698,21.887910 83.120700,21.887912 83.120701,21.887916 83.120702,21.887921 83.120702,21.887924 83.120702,21.887928 83.120702,21.887931 83.120702,21.887935 83.120701,21.887939 83.120700,21.887943 83.120698,21.887946 83.120696,21.887949 83.120694,21.887953 83.120691,21.887956 83.120689,21.887958 83.120686,21.887961 83.120683,21.887964 83.120679,21.887966 83.120675,21.887967 83.120672,21.887969 83.120668,21.887970 83.120663,21.887971 83.120659,21.887971 83.120656,21.887971 83.120652,21.887971 83.120648,21.887971 83.120643,21.887970 83.120639,21.887969 83.120636,21.887967 83.120632,21.887966 83.120628,21.887964 83.120625,21.887961 83.120623,21.887958 83.120456,21.887990 83.120257,21.887990 83.120124,21.887990 83.119957,21.887958 83.119791,21.887928 83.119624,21.887897 83.119458,21.887866 83.119292,21.887835 83.119125,21.887742 83.118926,21.887681 83.118759,21.887650 83.118593,21.887558 83.118360,21.887465 83.118193,21.887372 83.117961,21.887279 83.117729,21.887187 83.117496,21.887033 83.117263,21.886940 83.116997,21.886817 83.116730,21.886631 83.116431,21.886477 83.116131,21.886323 83.115799,21.886138 83.115432,21.885921 83.115100,21.885675 83.114735,21.885459 83.114236,21.885242 83.113770,21.884996 83.113304,21.884687 83.112771,21.884378 83.112239,21.884008 83.111641,21.883637 83.110975,21.883205 83.110277,21.882742 83.109544,21.882248 83.108747,21.881692 83.107882,21.881075 83.106917,21.880365 83.105919,21.879624 83.104788,21.878760 83.103557,21.877865 83.102260,21.876847 83.100796,21.875673 83.099233,21.874408 83.097502,21.872988 83.095606,21.871352 83.093577,21.869531 83.091282,21.867462 83.088820,21.865116 83.086125,21.862431 83.083198,21.859344 83.080104,21.855733 83.076877,21.851380 83.075148,21.845701 83.081269,21.847305 83.085959,21.850300 83.089851,21.853171 83.093178,21.855887 83.096072,21.858387 83.098600,21.860671 83.100829,21.862801 83.102792,21.864684 83.104555,21.866444 83.106085,21.868049 83.107449,21.869500 83.108714,21.870858 83.109811,21.872062 83.110776,21.873204 83.111707,21.874253 83.112505,21.875180 83.113270,21.876075 83.113936,21.876877 83.114535,21.877618 83.115066,21.878297 83.115566,21.878945 83.116031,21.879563 83.116431,21.880118 83.116830,21.880612 83.117163,21.881106 83.117496,21.881538 83.117762,21.881971 83.117994,21.882434 83.118227,21.882773 83.118493,21.883081 83.118726,21.883421 83.118926,21.883729 83.119092,21.884008 83.119258,21.884285 83.119458,21.884533 83.119591,21.884779 83.119691,21.884996 83.119857,21.885212 83.119957,21.885428 83.120057,21.885643 83.120157,21.885798 83.120257,21.886014 83.120357,21.886168 83.120390,21.886323 83.120456,21.886508 83.120556,21.886663 83.120589,21.886817 83.120623,21.886971 83.120656,21.887125 83.120689,21.887279 83.120723,21.887434 83.120723,21.887558 83.120723,21.887742 83.120689,21.887897 </coordinates></LinearRing></outerBoundaryIs></Polygon>
  <Style><LineStyle><color>ff00ffff</color><width>3</width></LineStyle>  <PolyStyle><fill>1</fill><color>5500ffff</color></PolyStyle></Style>
 </Placemark>
 <Placemark>
  <name>Orange Threat Zone 2 ppm = AEGL-2 (60 min)</name>
  <ExtendedData><Data name="MarplotID"><value>AAAAAAAAAAAAAA03</value></Data></ExtendedData>
  <description><![CDATA[<b>Time:</b> September 11, 2026  1320 hours ST<br><b>Chemical Name:</b> CHLORINE<br><b>Wind:</b> 4.17 meters/second from NE at 10 meters<br><small><br></small><b>THREAT ZONE:</b><br><span style="background-color: rgb(255, 0, 0);">&nbsp;&nbsp;&nbsp;&nbsp;</span>&nbsp;Red   : 1.2 miles --- (20 ppm = AEGL-3 [60 min])<br><span style="background-color: rgb(255, 153, 0);">&nbsp;&nbsp;&nbsp;&nbsp;</span>&nbsp;Orange: 2.6 miles --- (2 ppm = AEGL-2 [60 min])<br><span style="background-color: rgb(255, 255, 0);">&nbsp;&nbsp;&nbsp;&nbsp;</span>&nbsp;Yellow: 4.1 miles --- (0.5 ppm = AEGL-1 [60 min])<br><br><br>Model: ALOHA Heavy Gas <br>]]></description>
  <drawOrder>5</drawOrder><Polygon><gx:drawOrder>5</gx:drawOrder><outerBoundaryIs><LinearRing><coordinates>83.120689,21.887897 83.120691,21.887900 83.120694,21.887903 83.120696,21.887906 83.120698,21.887910 83.120700,21.887912 83.120701,21.887916 83.120702,21.887921 83.120702,21.887924 83.120702,21.887928 83.120702,21.887931 83.120702,21.887935 83.120701,21.887939 83.120700,21.887943 83.120698,21.887946 83.120696,21.887949 83.120694,21.887953 83.120691,21.887956 83.120689,21.887958 83.120686,21.887961 83.120683,21.887964 83.120679,21.887966 83.120675,21.887967 83.120672,21.887969 83.120668,21.887970 83.120663,21.887971 83.120659,21.887971 83.120656,21.887971 83.120652,21.887971 83.120648,21.887971 83.120643,21.887970 83.120639,21.887969 83.120636,21.887967 83.120632,21.887966 83.120628,21.887964 83.120625,21.887961 83.120623,21.887958 83.120456,21.887990 83.120257,21.887990 83.120124,21.887990 83.119957,21.887958 83.119791,21.887928 83.119658,21.887866 83.119491,21.887835 83.119358,21.887774 83.119159,21.887712 83.118992,21.887619 83.118826,21.887588 83.118659,21.887496 83.118426,21.887403 83.118260,21.887310 83.118027,21.887218 83.117828,21.887095 83.117596,21.886940 83.117363,21.886847 83.117130,21.886693 83.116830,21.886539 83.116564,21.886354 83.116264,21.886199 83.115965,21.885984 83.115599,21.885767 83.115266,21.885520 83.114934,21.885273 83.114435,21.885057 83.114003,21.884779 83.113537,21.884471 83.113038,21.884131 83.112505,21.883761 83.111940,21.883359 83.111308,21.882896 83.110643,21.882402 83.109944,21.881878 83.109178,21.881291 83.108381,21.880612 83.107449,21.879872 83.106484,21.879100 83.105420,21.878173 83.104289,21.877186 83.103058,21.876106 83.101694,21.874840 83.100263,21.873451 83.098700,21.871877 83.097004,21.870056 83.095240,21.867987 83.093411,21.865487 83.091980,21.862184 83.092213,21.861536 83.092912,21.861320 83.096472,21.862647 83.099166,21.864344 83.101395,21.865981 83.103357,21.867555 83.105054,21.869006 83.106551,21.870333 83.107915,21.871598 83.109079,21.872741 83.110143,21.873790 83.111142,21.874778 83.111973,21.875673 83.112771,21.876538 83.113503,21.877278 83.114136,21.877989 83.114701,21.878637 83.115233,21.879254 83.115732,21.879840 83.116165,21.880365 83.116564,21.880859 83.116930,21.881322 83.117263,21.881755 83.117562,21.882155 83.117795,21.882618 83.118060,21.882927 83.118327,21.883236 83.118560,21.883575 83.118792,21.883853 83.118959,21.884131 83.119159,21.884378 83.119325,21.884656 83.119491,21.884872 83.119591,21.885088 83.119758,21.885304 83.119891,21.885489 83.119990,21.885705 83.120090,21.885859 83.120190,21.886075 83.120290,21.886230 83.120323,21.886384 83.120423,21.886539 83.120490,21.886724 83.120556,21.886847 83.120589,21.887002 83.120656,21.887125 83.120689,21.887279 83.120723,21.887434 83.120723,21.887558 83.120723,21.887742 83.120689,21.887897 </coordinates></LinearRing></outerBoundaryIs></Polygon>
  <Style><LineStyle><color>ff0080ff</color><width>3</width></LineStyle>  <PolyStyle><fill>1</fill><color>550080ff</color></PolyStyle></Style>
 </Placemark>
 <Placemark>
  <name>Red Threat Zone 20 ppm = AEGL-3 (60 min)</name>
  <ExtendedData><Data name="MarplotID"><value>AAAAAAAAAAAAAA05</value></Data></ExtendedData>
  <description><![CDATA[<b>Time:</b> September 11, 2026  1320 hours ST<br><b>Chemical Name:</b> CHLORINE<br><b>Wind:</b> 4.17 meters/second from NE at 10 meters<br><small><br></small><b>THREAT ZONE:</b><br><span style="background-color: rgb(255, 0, 0);">&nbsp;&nbsp;&nbsp;&nbsp;</span>&nbsp;Red   : 1.2 miles --- (20 ppm = AEGL-3 [60 min])<br><span style="background-color: rgb(255, 153, 0);">&nbsp;&nbsp;&nbsp;&nbsp;</span>&nbsp;Orange: 2.6 miles --- (2 ppm = AEGL-2 [60 min])<br><span style="background-color: rgb(255, 255, 0);">&nbsp;&nbsp;&nbsp;&nbsp;</span>&nbsp;Yellow: 4.1 miles --- (0.5 ppm = AEGL-1 [60 min])<br><br><br>Model: ALOHA Heavy Gas <br>]]></description>
  <drawOrder>6</drawOrder><Polygon><gx:drawOrder>6</gx:drawOrder><outerBoundaryIs><LinearRing><coordinates>83.120689,21.887897 83.120691,21.887900 83.120694,21.887903 83.120696,21.887906 83.120698,21.887910 83.120700,21.887912 83.120701,21.887916 83.120702,21.887921 83.120702,21.887924 83.120702,21.887928 83.120702,21.887931 83.120702,21.887935 83.120701,21.887939 83.120700,21.887943 83.120698,21.887946 83.120696,21.887949 83.120694,21.887953 83.120691,21.887956 83.120689,21.887958 83.120686,21.887961 83.120683,21.887964 83.120679,21.887966 83.120675,21.887967 83.120672,21.887969 83.120668,21.887970 83.120663,21.887971 83.120659,21.887971 83.120656,21.887971 83.120652,21.887971 83.120648,21.887971 83.120643,21.887970 83.120639,21.887969 83.120636,21.887967 83.120632,21.887966 83.120628,21.887964 83.120625,21.887961 83.120623,21.887958 83.120456,21.887990 83.120290,21.887958 83.120157,21.887958 83.119990,21.887928 83.119857,21.887866 83.119691,21.887835 83.119558,21.887774 83.119425,21.887712 83.119258,21.887619 83.119092,21.887526 83.118959,21.887465 83.118759,21.887403 83.118560,21.887279 83.118393,21.887187 83.118193,21.887063 83.118027,21.886909 83.117795,21.886754 83.117596,21.886631 83.117363,21.886477 83.117096,21.886292 83.116830,21.886107 83.116564,21.885921 83.116264,21.885705 83.115965,21.885428 83.115632,21.885180 83.115299,21.884933 83.114901,21.884625 83.114502,21.884317 83.114069,21.883977 83.113603,21.883606 83.113137,21.883174 83.112638,21.882711 83.112073,21.882186 83.111475,21.881630 83.110876,21.881013 83.110243,21.880304 83.109544,21.879532 83.108813,21.878605 83.108181,21.877526 83.107948,21.876136 83.109445,21.876352 83.110609,21.876939 83.111608,21.877618 83.112439,21.878266 83.113204,21.878853 83.113869,21.879409 83.114468,21.879964 83.115033,21.880488 83.115532,21.880951 83.115998,21.881384 83.116398,21.881816 83.116764,21.882217 83.117096,21.882588 83.117429,21.882958 83.117695,21.883267 83.117961,21.883575 83.118260,21.883853 83.118493,21.884131 83.118693,21.884378 83.118892,21.884625 83.119092,21.884872 83.119258,21.885088 83.119391,21.885273 83.119558,21.885489 83.119724,21.885643 83.119857,21.885829 83.119957,21.885984 83.120090,21.886168 83.120157,21.886354 83.120223,21.886477 83.120323,21.886631 83.120423,21.886786 83.120490,21.886909 83.120556,21.887033 83.120589,21.887187 83.120656,21.887310 83.120689,21.887465 83.120689,21.887588 83.120723,21.887742 83.120689,21.887897 </coordinates></LinearRing></outerBoundaryIs></Polygon>
  <Style><LineStyle><color>ff0000ff</color><width>3</width></LineStyle>  <PolyStyle><fill>1</fill><color>550000ff</color></PolyStyle></Style>
 </Placemark>
</Folder>
<Folder><name>Aloha Points</name>
 <Placemark>
  <name>ALOHA Source Point</name>
  <ExtendedData><Data name="MarplotID"><value>AAAAAA0000000000</value></Data></ExtendedData>
  <description><![CDATA[<b>Time:</b> September 11, 2026  1320 hours ST<br><b>Chemical Name:</b> CHLORINE<br><b>Wind:</b> 4.17 meters/second from NE at 10 meters<br><small><br></small><b>THREAT ZONE:</b><br><span style="background-color: rgb(255, 0, 0);">&nbsp;&nbsp;&nbsp;&nbsp;</span>&nbsp;Red   : 1.2 miles --- (20 ppm = AEGL-3 [60 min])<br><span style="background-color: rgb(255, 153, 0);">&nbsp;&nbsp;&nbsp;&nbsp;</span>&nbsp;Orange: 2.6 miles --- (2 ppm = AEGL-2 [60 min])<br><span style="background-color: rgb(255, 255, 0);">&nbsp;&nbsp;&nbsp;&nbsp;</span>&nbsp;Yellow: 4.1 miles --- (0.5 ppm = AEGL-1 [60 min])<br><br><br>Model: ALOHA Heavy Gas <br>]]></description>
  <Point><coordinates>83.120656,21.887928</coordinates></Point>
 </Placemark>
 <Placemark>
  <name>ALOHA Threat Point</name>
  <ExtendedData><Data name="MarplotID"><value>AAAAAACCCCCCCCCC</value></Data></ExtendedData>
  <description><![CDATA[<b>Time:</b> September 11, 2026  1320 hours ST<br><b>Chemical Name:</b> CHLORINE<br><b>Wind:</b> 4.17 meters/second from NE at 10 meters<br><small><br></small><b>THREAT ZONE:</b><br><span style="background-color: rgb(255, 0, 0);">&nbsp;&nbsp;&nbsp;&nbsp;</span>&nbsp;Red   : 1.2 miles --- (20 ppm = AEGL-3 [60 min])<br><span style="background-color: rgb(255, 153, 0);">&nbsp;&nbsp;&nbsp;&nbsp;</span>&nbsp;Orange: 2.6 miles --- (2 ppm = AEGL-2 [60 min])<br><span style="background-color: rgb(255, 255, 0);">&nbsp;&nbsp;&nbsp;&nbsp;</span>&nbsp;Yellow: 4.1 miles --- (0.5 ppm = AEGL-1 [60 min])<br><br><br>Model: ALOHA Heavy Gas <br>]]></description>
  <Point><coordinates>83.091539,21.862308</coordinates></Point>
 </Placemark>
</Folder>
</Document></kml>
